SWAS                    
1 25560U 98071A   26068.53487068  .00004636  00000+0  29986-3 0  9991
2 25560  69.8952 124.3662 0004099  14.3215 345.8065 15.08888192482231
STARLINK-5122           
1 54179U 22141Y   26068.18982004 -.00002138  00000+0 -11632-3 0  9991
2 54179  53.2185   6.2525 0001485 100.9333 259.1826 15.08832639185786
